# From MPEC 2021-BE3
C/2020 W5 (Lemmon),h,11/30.0657/2020,88.5901,75.4804,24.4876,1.000683,3.364749,2000,15.0,4.0
# From MPEC 2022-L66
P/2020 WJ5 (Lemmon),e,22.2944,177.8107,338.2341,6.016314,0.0667895,0.17127550,34.4987,11/30.0/2022,2000,g  8.5,4.0
# From MPEC 2021-P47
P/2020 X1 (ATLAS),e,31.6925,55.9985,323.3835,4.529656,0.1022366,0.36554391,88.1522,11/30.0/2022,2000,g 13.0,4.0
# From MPEC 2021-U31
C/2020 X2 (ATLAS),e,18.1858,105.4339,347.3532,16.43737,0.0147896,0.76716221,11.0043,11/30.0/2022,2000,g 10.6,4.0
# From MPEC 2021-S45
C/2020 X4 (Leonard),e,80.6059,161.8820,140.3029,40.86642,0.0037727,0.87223672,2.8064,11/30.0/2022,2000,g  9.0,4.0
# From MPEC 2022-WQ9
C/2020 Y2 (ATLAS),e,101.2978,26.5151,266.1117,1034,0.0000296,0.99697034,0.0000,06/17.7191/2022,2000,g  6.5,4.0
# From MPEC 2021-R75
C/2020 Y3 (ATLAS),e,83.1009,191.4424,341.9801,144.4795,0.0005675,0.98617520,0.0000,12/03.3603/2020,2000,g 13.5,4.0
# From MPEC 2022-H04
C/2021 A1 (Leonard),e,132.6956,255.8963,225.0996,32017,0.0000002,0.99998078,0.0000,01/03.2848/2022,2000,g  8.5,4.0
# From MPEC 2022-F14
C/2021 A2 (NEOWISE),e,106.9813,125.2160,338.7978,237.3664,0.0002695,0.99405064,0.0000,01/22.5038/2021,2000,g 13.5,4.0
# From MPEC 2022-ED3
C/2021 A4 (NEOWISE),e,111.5315,307.1137,204.7043,42.55615,0.0035503,0.97304891,0.0000,03/19.8457/2021,2000,g 16.0,4.0
# From MPEC 2021-BE3
P/2021 A5 (PANSTARRS),e,18.1854,328.7664,61.2942,3.047581,0.1852555,0.13989480,138.4967,11/30.0/2022,2000,g 15.0,4.0
# From MPEC 2022-K19
C/2021 A6 (PANSTARRS),e,75.6089,164.0780,351.6553,9787,0.0000010,0.99919000,0.0000,05/03.5590/2021,2000,g  7.0,4.0
# From MPEC 2022-M88
C/2021 A7 (NEOWISE),e,78.1505,154.5126,356.0247,2827,0.0000066,0.99930418,0.0000,07/15.2335/2021,2000,g 10.0,4.0
# From MPEC 2022-WQ9
C/2021 A9 (PANSTARRS),h,12/01.4450/2023,158.0213,314.8427,211.4536,1.002806,7.760281,2000,6.0,4.0
# From MPEC 2021-N06
C/2021 A10 (NEOWISE),e,151.9130,188.6621,82.3542,88.70088,0.0011798,0.98577037,0.0000,03/15.2022/2021,2000,g 19.0,4.0
# From MPEC 2022-L66
C/2021 B2 (PANSTARRS),e,38.0869,120.5379,334.9675,355.7782,0.0001469,0.99293890,0.0000,05/04.3064/2021,2000,g 14.0,4.0
# From MPEC 2021-N06
C/2021 B3 (NEOWISE),e,119.4815,67.2857,293.5457,34.62594,0.0048373,0.93760323,3.0440,11/30.0/2022,2000,g 13.5,4.0
# From MPEC 2022-ED3
C/2021 C1 (Rankin),e,143.0455,186.8998,336.2652,19669,0.0000004,0.99982312,0.0000,12/07.0160/2020,2000,g 11.5,4.0
# From MPEC 2021-U31
P/2021 C2 (PANSTARRS),e,21.9326,66.4658,78.7413,9.534168,0.0334796,0.48727190,21.5709,11/30.0/2022,2000,g 12.0,4.0
# From MPEC 2021-N06
C/2021 C3 (Catalina),e,122.1643,181.9279,357.0975,62.36860,0.0020010,0.96352431,1.3121,11/30.0/2022,2000,g 14.0,4.0
# From MPEC 2022-M88
C/2021 C4 (ATLAS),h,01/17.0914/2021,132.8540,194.2780,320.2161,1.000013,4.502939,2000,9.0,4.0
# From MPEC 2022-QD9
C/2021 C5 (PANSTARRS),e,50.7817,323.6853,270.9215,2757,0.0000068,0.99882412,0.0000,02/11.0786/2023,2000,g  9.0,4.0
# From MPEC 2022-F14
C/2021 C6 (Lemmon),h,11/13.2596/2021,164.6257,332.1552,203.5569,1.001154,3.271405,2000,12.0,4.0
# From MPEC 2022-F14
C/2021 D1 (SWAN),e,31.4413,311.2537,72.2613,99.52097,0.0009927,0.99093646,0.0000,02/27.7098/2021,2000,g 13.0,4.0
# From MPEC 2022-P82
C/2021 D2 (ZTF),h,02/03.9864/2022,83.8229,305.6804,125.0285,1.001692,2.946260,2000,9.0,4.0
# From MPEC 2022-UY9
A/2021 E2,e,167.4882,190.8233,342.4157,229.5623,0.0002834,0.99004230,0.0000,12/10.4358/2020,2000,g 15.0,2.0
# From MPEC 2022-WQ9
C/2021 E3 (ZTF),h,06/11.9124/2022,112.5543,104.4717,228.8524,1.000909,1.777403,2000,8.5,4.0
# From MPEC 2022-UY9
A/2021 E4,e,116.3612,171.1730,48.2659,623.9290,0.0000632,0.99250567,0.0000,04/25.2259/2022,2000,g 13.5,2.0
# From MPEC 2022-QD9
C/2021 F1 (Lemmon-PANSTARRS),e,107.3263,203.4534,146.8175,230.5344,0.0002816,0.99568208,0.0000,04/06.8616/2022,2000,g 13.5,4.0
# From MPEC 2021-J72
C/2021 G1 (Leonard),e,131.5530,270.6999,107.4597,74.51248,0.0015324,0.95405880,0.7599,11/30.0/2022,2000,g 14.0,4.0
# From MPEC 2022-WQ9
C/2021 G2 (ATLAS),e,48.4729,221.1012,343.3451,4955,0.0000028,0.99899491,0.0000,09/09.8086/2024,2000,g  5.5,4.0
# From MPEC 2022-M21
C/2021 G3 (PANSTARRS),h,10/18.3087/2021,102.8782,147.4132,10.6145,1.000557,5.180571,2000,10.5,4.0
# From MPEC 2021-Y10
P/2021 HS (PANSTARRS),e,12.1664,262.3875,46.1049,4.194586,0.1147283,0.80997498,55.1476,11/30.0/2022,2000,g 22.0,4.0
# From MPEC 2022-C56
C/2021 J1 (Maury-Attard),e,92.7215,88.3457,147.3314,26.41093,0.0072615,0.93408123,4.7097,11/30.0/2022,2000,g 15.5,4.0
# From MPEC 2022-M88
C/2021 J2 (PANSTARRS),e,156.2126,23.3337,172.0411,117.9901,0.0007690,0.96011628,0.3335,11/30.0/2022,2000,g 12.0,4.0
# From MPEC 2021-S45
P/2021 J3 (ATLAS),e,14.5365,111.1696,126.0494,8.937571,0.0368871,0.44953848,45.8976,11/30.0/2022,2000,g  7.0,4.0
# From MPEC 2022-O08
C/2021 K1 (ATLAS),e,16.2757,140.9030,184.2802,12.68141,0.0218249,0.80300889,12.5417,11/30.0/2022,2000,g 11.0,4.0
# From MPEC 2022-O01
C/2021 K2 (MASTER),h,09/09.4501/2021,100.8522,282.2482,343.3578,1.001080,5.467772,2000,8.0,4.0
# From MPEC 2022-L66
C/2021 K3 (Catalina),h,02/03.0573/2022,134.7781,114.4549,182.0399,1.003088,5.229858,2000,10.0,4.0
# From MPEC 2021-W31
P/2021 L2 (Leonard),e,21.0697,266.6570,51.5124,4.049405,0.1209532,0.52127001,59.7064,11/30.0/2022,2000,g 17.0,4.0
# From MPEC 2022-UE6
C/2021 L3 (Borisov),h,02/13.8776/2022,78.5793,344.9722,91.6033,1.002748,8.457851,2000,6.0,4.0
# From MPEC 2022-ST7
P/2021 L4 (PANSTARRS),e,16.9597,243.2131,234.4723,3.165850,0.1749720,0.11833903,207.2521,11/30.0/2022,2000,g 13.5,4.0
# From MPEC 2022-TA0
P/2021 N1 (ZTF),e,11.5011,301.1637,21.2156,2.977615,0.1918233,0.67655568,103.8731,11/30.0/2022,2000,g 19.0,4.0
# From MPEC 2022-WQ9
P/2021 N2 (Fuls),e,13.0618,221.7389,177.4069,6.935568,0.0539611,0.45250217,20.5777,11/30.0/2022,2000,g  9.5,4.0
# From MPEC 2022-OB6
C/2021 N3 (PANSTARRS),e,26.7409,337.4933,304.7597,155.3105,0.0005092,0.96319895,0.4238,11/30.0/2022,2000,g  8.5,4.0
# From MPEC 2022-A21
C/2021 O1 (Nishimura),e,27.5840,41.6150,74.4190,2347,0.0000087,0.99966503,0.0000,08/13.9585/2021,2000,g 10.5,4.0
# From MPEC 2022-L66
C/2021 O3 (PANSTARRS),h,04/21.0458/2022,56.7940,189.0190,299.9797,1.000081,0.287255,2000,10.5,4.0
# From MPEC 2022-CN4
C/2021 P1 (PANSTARRS),e,51.6365,359.6761,40.4460,2562,0.0000076,0.99829294,0.0000,06/02.2806/2022,2000,g 11.0,4.0
# From MPEC 2022-WQ9
C/2021 P2 (PANSTARRS),e,150.0633,32.0783,76.6785,2458,0.0000081,0.99793786,0.0000,01/22.6165/2023,2000,g  9.0,4.0
# From MPEC 2021-W31
P/2021 P3 (PANSTARRS),e,27.1616,358.2393,334.1022,4.413066,0.1063147,0.33928376,58.3338,11/30.0/2022,2000,g 14.0,4.0
# From MPEC 2022-P82
C/2021 P4 (ATLAS),e,56.3105,348.0940,175.8165,319.1440,0.0001729,0.99661461,0.0000,07/30.3649/2022,2000,g  9.5,4.0
# From MPEC 2022-WQ9
C/2021 Q3 (ATLAS),e,77.7696,307.9090,114.0945,75.44551,0.0015040,0.93101408,0.4630,11/30.0/2022,2000,g  8.0,4.0
# From MPEC 2022-WQ9
C/2021 Q4 (Fuls),h,06/10.0608/2023,71.4729,183.3338,146.9727,1.003254,7.564887,2000,6.0,4.0
# From MPEC 2022-C56
P/2021 Q5 (ATLAS),e,10.7363,239.7566,180.9125,3.286404,0.1654332,0.62444308,75.5206,11/30.0/2022,2000,g 15.0,4.0
# From MPEC 2022-WQ9
C/2021 Q6 (PANSTARRS),e,161.8475,133.5337,140.9042,15646,0.0000005,0.99944331,0.0000,03/23.0387/2024,2000,g  6.0,4.0
# From MPEC 2022-WQ9
C/2021 QM45 (PANSTARRS),e,22.8223,354.5887,72.8109,353.7259,0.0001482,0.99215980,0.0000,08/13.4564/2022,2000,g 11.0,4.0
# From MPEC 2022-TA0
P/2021 R1 (PANSTARRS),e,5.5193,143.3699,220.3650,8.360137,0.0407741,0.41556350,14.1720,11/30.0/2022,2000,g 11.0,4.0
# From MPEC 2022-TA0
C/2021 R2 (PANSTARRS),e,134.4809,16.2945,32.4128,2413,0.0000083,0.99696935,0.0000,12/26.4824/2021,2000,g  7.5,4.0
# From MPEC 2021-W31
P/2021 R3 (PANSTARRS),e,19.9274,304.2071,2.8180,3.773438,0.1344616,0.33121643,74.3242,11/30.0/2022,2000,g 16.0,4.0
# From MPEC 2021-W31
P/2021 R4 (Wierzchos),e,21.0385,321.2593,56.6624,5.620049,0.0739765,0.58601115,30.4771,11/30.0/2022,2000,g 16.0,4.0
# From MPEC 2022-CN4
P/2021 R5 (Rankin),e,7.8547,219.9595,167.4053,4.793417,0.0939153,0.30674703,30.2118,11/30.0/2022,2000,g 12.0,4.0
# From MPEC 2021-W31
P/2021 R6 (Groeller),e,34.9268,176.1145,220.7656,6.277158,0.0626700,0.59333666,24.6915,11/30.0/2022,2000,g 14.5,4.0
# From MPEC 2022-ST7
C/2021 R7 (PANSTARRS),e,158.8450,170.1422,140.2634,886.2123,0.0000374,0.99362444,0.0000,04/16.5033/2021,2000,g 10.5,4.0
# From MPEC 2021-Y10
P/2021 R8 (Sheppard),e,2.2034,167.0277,190.7973,3.017298,0.1880515,0.29356707,78.7029,11/30.0/2022,2000,g 18.5,4.0
# From MPEC 2022-WQ9
C/2021 S1 (ATLAS),h,02/28.9953/2022,52.0796,299.8774,148.1886,1.001649,6.119235,2000,7.0,4.0
# From MPEC 2022-WQ9
C/2021 S3 (PANSTARRS),e,58.5343,215.6249,6.8821,36461,0.0000001,0.99996381,0.0000,02/14.7446/2024,2000,g  5.5,4.0
# From MPEC 2022-WQ9
C/2021 S4 (Tsuchinshan),e,17.4801,5.4970,72.7726,164.5108,0.0004671,0.95932667,359.8144,11/30.0/2022,2000,g  6.5,4.0
# From MPEC 2022-OB6
C/2021 T1 (Lemmon),e,140.3520,56.8334,51.5253,1260,0.0000220,0.99757264,0.0000,10/14.0637/2021,2000,g 12.5,4.0
# From MPEC 2022-ED3
C/2021 T2 (Fuls),h,06/07.8971/2022,117.5319,223.2317,263.5962,1.000265,1.247741,2000,12.0,4.0
# From MPEC 2022-WQ9
C/2021 T4 (Lemmon),h,07/31.4941/2023,160.7683,257.8355,329.7751,1.000226,1.482926,2000,7.5,4.0
# From MPEC 2022-ED3
P/2021 U1 (Wierzchos),e,30.5561,246.7822,145.0846,8.518567,0.0396419,0.71290857,16.8451,11/30.0/2022,2000,g 14.5,4.0
# From MPEC 2022-L66
P/2021 U3 (Attard-Maury),e,69.9584,75.1042,335.2266,4.192230,0.1148250,0.54986852,46.0594,11/30.0/2022,2000,g 15.5,4.0
# From MPEC 2021-W31
C/2021 U4 (Leonard),e,152.8785,241.8115,237.2850,44.69135,0.0032989,0.96000023,1.1318,11/30.0/2022,2000,g 17.0,4.0
# From MPEC 2022-WQ9
C/2021 U5 (Catalina),e,39.0506,182.7551,321.4548,216.9924,0.0003083,0.98911057,0.0000,01/26.5824/2022,2000,g 13.0,4.0
# From MPEC 2022-CN4
C/2021 V1 (Rankin),e,71.4541,207.6541,195.1188,608.6949,0.0000656,0.99504913,0.0000,04/30.4052/2022,2000,g 13.0,4.0
# From MPEC 2022-WQ9
